ONEWEB-0020             
1 45133U 20008C   26014.10947773 -.00000020  00000+0 -93079-4 0  9992
2 45133  87.8785  66.9747 0001869 105.6688 254.4646 13.10376931288168
ONEWEB-0021             
1 45134U 20008D   26014.50621733  .00000637  00000+0  17869-2 0  9995
2 45134  87.8775  66.9232 0001778  95.5982 264.5349 13.10375280288528
ONEWEB-0023             
1 45136U 20008F   26014.51700600  .00000652  00000+0  18306-2 0  9993
2 45136  87.8770  66.9015 0001941  96.6925 263.4424 13.10372121287954
ONEWEB-0024             
1 45137U 20008G   26014.10781753 -.00000066  00000+0 -22476-3 0  9992
2 45137  87.8793  66.9604 0001739  99.2455 260.8869 13.10376269288060
ONEWEB-0025             
1 45138U 20008H   26014.50704732  .00000699  00000+0  19667-2 0  9996
2 45138  87.8782  66.8802 0002037  92.7187 267.4174 13.10375460288446
ONEWEB-0026             
1 45139U 20008J   26014.49685960 -.00000295  00000+0 -86936-3 0  9994
2 45139  87.8822  51.6606 0001660 100.7411 259.3904 13.11415304290961
ONEWEB-0028             
1 45140U 20008K   26014.52993279  .00000104  00000+0  25834-3 0  9992
2 45140  87.8823  51.6661 0002300  85.2340 274.9051 13.11419480288484
ONEWEB-0032             
1 45141U 20008L   26014.52281281  .00000462  00000+0  12871-2 0  9999
2 45141  87.8775  66.9044 0001972  96.8515 263.2837 13.10370515288174
